[
    {
        "Altitude(m)": 716660.6569138167,
        "Argument of Periapsis(deg)": 0.005695060593313534,
        "Eccentricity": 0.0,
        "Inclination(deg)": 45.0,
        "Latitude(deg)": -42.191546927834615,
        "Longitude(deg)": 103.99977746504027,
        "Mean Anomaly(deg)": -108.7788916762595,
        "RAAN(deg)": 319.9946240292709,
        "Satellite Name": "Constellation 1 1423",
        "Satellite Number": 1423,
        "Semi-Major Axis(m)": 7083131.272910544,
        "Time(s)": 95
    },
    {
        "Altitude(m)": 716668.3275264194,
        "Argument of Periapsis(deg)": 0.00575500859955894,
        "Eccentricity": 0.0,
        "Inclination(deg)": 45.0,
        "Latitude(deg)": -42.21008152695621,
        "Longitude(deg)": 104.07331900929755,
        "Mean Anomaly(deg)": -108.71819053600977,
        "RAAN(deg)": 319.9945674401053,
        "Satellite Name": "Constellation 1 1423",
        "Satellite Number": 1423,
        "Semi-Major Axis(m)": 7083131.272910544,
        "Time(s)": 96
    },
    {
        "Altitude(m)": 716675.9762080275,
        "Argument of Periapsis(deg)": 0.005814956605804345,
        "Eccentricity": 0.0,
        "Inclination(deg)": 45.0,
        "Latitude(deg)": -42.22856347341375,
        "Longitude(deg)": 104.14690596161316,
        "Mean Anomaly(deg)": -108.6574893957598,
        "RAAN(deg)": 319.9945108509398,
        "Satellite Name": "Constellation 1 1423",
        "Satellite Number": 1423,
        "Semi-Major Axis(m)": 7083131.272910544,
        "Time(s)": 97
    },
    {
        "Altitude(m)": 716683.6029305491,
        "Argument of Periapsis(deg)": 0.00587490461204975,
        "Eccentricity": 0.0,
        "Inclination(deg)": 45.0,
        "Latitude(deg)": -42.24699270326969,
        "Longitude(deg)": 104.22053808080938,
        "Mean Anomaly(deg)": -108.59678825550986,
        "RAAN(deg)": 319.9944542617742,
        "Satellite Name": "Constellation 1 1423",
        "Satellite Number": 1423,
        "Semi-Major Axis(m)": 7083131.272910544,
        "Time(s)": 98
    },
    {
        "Altitude(m)": 716691.2076659797,
        "Argument of Periapsis(deg)": 0.005934852618295156,
        "Eccentricity": 0.0,
        "Inclination(deg)": 45.0,
        "Latitude(deg)": -42.265369152673145,
        "Longitude(deg)": 104.29421529325587,
        "Mean Anomaly(deg)": -108.53608711526006,
        "RAAN(deg)": 319.9943976726086,
        "Satellite Name": "Constellation 1 1423",
        "Satellite Number": 1423,
        "Semi-Major Axis(m)": 7083131.272910544,
        "Time(s)": 99
    },
    {
        "Altitude(m)": 716698.7903863828,
        "Argument of Periapsis(deg)": 0.005994800624540561,
        "Eccentricity": 0.0,
        "Inclination(deg)": 45.0,
        "Latitude(deg)": -42.28369275786087,
        "Longitude(deg)": 104.3679375247731,
        "Mean Anomaly(deg)": -108.4753859750101,
        "RAAN(deg)": 319.99434108344303,
        "Satellite Name": "Constellation 1 1423",
        "Satellite Number": 1423,
        "Semi-Major Axis(m)": 7083131.272910544,
        "Time(s)": 100
    },
    {
        "Altitude(m)": 716706.3510639189,
        "Argument of Periapsis(deg)": 0.006054748630785968,
        "Eccentricity": 0.0,
        "Inclination(deg)": 45.0,
        "Latitude(deg)": -42.30196345515786,
        "Longitude(deg)": 104.4417047006303,
        "Mean Anomaly(deg)": -108.41468483476015,
        "RAAN(deg)": 319.99428449427745,
        "Satellite Name": "Constellation 1 1423",
        "Satellite Number": 1423,
        "Semi-Major Axis(m)": 7083131.272910544,
        "Time(s)": 101
    },
    {
        "Altitude(m)": 716713.8896708105,
        "Argument of Periapsis(deg)": 0.006114696637031373,
        "Eccentricity": 0.0,
        "Inclination(deg)": 45.0,
        "Latitude(deg)": -42.320181180978324,
        "Longitude(deg)": 104.51551674554617,
        "Mean Anomaly(deg)": -108.3539836945103,
        "RAAN(deg)": 319.9942279051119,
        "Satellite Name": "Constellation 1 1423",
        "Satellite Number": 1423,
        "Semi-Major Axis(m)": 7083131.272910544,
        "Time(s)": 102
    },
    {
        "Altitude(m)": 716721.4061793715,
        "Argument of Periapsis(deg)": 0.006174644643276778,
        "Eccentricity": 0.0,
        "Inclination(deg)": 45.0,
        "Latitude(deg)": -42.33834587182663,
        "Longitude(deg)": 104.58937358368829,
        "Mean Anomaly(deg)": -108.29328255426047,
        "RAAN(deg)": 319.99417131594635,
        "Satellite Name": "Constellation 1 1423",
        "Satellite Number": 1423,
        "Semi-Major Axis(m)": 7083131.272910544,
        "Time(s)": 103
    },
    {
        "Altitude(m)": 716728.900561987,
        "Argument of Periapsis(deg)": 0.006234592649522184,
        "Eccentricity": 0.0,
        "Inclination(deg)": 45.0,
        "Latitude(deg)": -42.35645746429801,
        "Longitude(deg)": 104.66327497057563,
        "Mean Anomaly(deg)": -108.23258141401045,
        "RAAN(deg)": 319.99411472678077,
        "Satellite Name": "Constellation 1 1423",
        "Satellite Number": 1423,
        "Semi-Major Axis(m)": 7083131.272910544,
        "Time(s)": 104
    },
    {
        "Altitude(m)": 716736.3727911292,
        "Argument of Periapsis(deg)": 0.00629454065576759,
        "Eccentricity": 0.0,
        "Inclination(deg)": 45.0,
        "Latitude(deg)": -42.37451589507952,
        "Longitude(deg)": 104.73722116546521,
        "Mean Anomaly(deg)": -108.17188027376062,
        "RAAN(deg)": 319.9940581376152,
        "Satellite Name": "Constellation 1 1423",
        "Satellite Number": 1423,
        "Semi-Major Axis(m)": 7083131.272910544,
        "Time(s)": 105
    },
    {
        "Altitude(m)": 716743.822839349,
        "Argument of Periapsis(deg)": 0.006354488662012995,
        "Eccentricity": 0.0,
        "Inclination(deg)": 45.0,
        "Latitude(deg)": -42.39252110095082,
        "Longitude(deg)": 104.81121192277155,
        "Mean Anomaly(deg)": -108.11117913351075,
        "RAAN(deg)": 319.99400154844966,
        "Satellite Name": "Constellation 1 1423",
        "Satellite Number": 1423,
        "Semi-Major Axis(m)": 7083131.272910544,
        "Time(s)": 106
    },
    {
        "Altitude(m)": 716751.2506792762,
        "Argument of Periapsis(deg)": 0.006414436668258401,
        "Eccentricity": 0.0,
        "Inclination(deg)": 45.0,
        "Latitude(deg)": -42.41047301878526,
        "Longitude(deg)": 104.8852471644531,
        "Mean Anomaly(deg)": -108.05047799326081,
        "RAAN(deg)": 319.9939449592841,
        "Satellite Name": "Constellation 1 1423",
        "Satellite Number": 1423,
        "Semi-Major Axis(m)": 7083131.272910544,
        "Time(s)": 107
    },
    {
        "Altitude(m)": 716758.6562836177,
        "Argument of Periapsis(deg)": 0.0064743846745038075,
        "Eccentricity": 0.0,
        "Inclination(deg)": 45.0,
        "Latitude(deg)": -42.4283715855504,
        "Longitude(deg)": 104.95932681191483,
        "Mean Anomaly(deg)": -107.98977685301084,
        "RAAN(deg)": 319.9938883701185,
        "Satellite Name": "Constellation 1 1423",
        "Satellite Number": 1423,
        "Semi-Major Axis(m)": 7083131.272910544,
        "Time(s)": 108
    },
    {
        "Altitude(m)": 716766.0396251676,
        "Argument of Periapsis(deg)": 0.0065343326807492125,
        "Eccentricity": 0.0,
        "Inclination(deg)": 45.0,
        "Latitude(deg)": -42.44621673830913,
        "Longitude(deg)": 105.03345078600816,
        "Mean Anomaly(deg)": -107.92907571276099,
        "RAAN(deg)": 319.9938317809529,
        "Satellite Name": "Constellation 1 1423",
        "Satellite Number": 1423,
        "Semi-Major Axis(m)": 7083131.272910544,
        "Time(s)": 109
    },
    {
        "Altitude(m)": 716773.4006767977,
        "Argument of Periapsis(deg)": 0.0065942806869946176,
        "Eccentricity": 0.0,
        "Inclination(deg)": 45.0,
        "Latitude(deg)": -42.464008414220494,
        "Longitude(deg)": 105.10761900703073,
        "Mean Anomaly(deg)": -107.8683745725111,
        "RAAN(deg)": 319.99377519178734,
        "Satellite Name": "Constellation 1 1423",
        "Satellite Number": 1423,
        "Semi-Major Axis(m)": 7083131.272910544,
        "Time(s)": 110
    },
    {
        "Altitude(m)": 716780.7394114546,
        "Argument of Periapsis(deg)": 0.006654228693240024,
        "Eccentricity": 0.0,
        "Inclination(deg)": 45.0,
        "Latitude(deg)": -42.481746550540485,
        "Longitude(deg)": 105.18183122662928,
        "Mean Anomaly(deg)": -107.80767343226124,
        "RAAN(deg)": 319.9937186026218,
        "Satellite Name": "Constellation 1 1423",
        "Satellite Number": 1423,
        "Semi-Major Axis(m)": 7083131.272910544,
        "Time(s)": 111
    },
    {
        "Altitude(m)": 716788.0558021776,
        "Argument of Periapsis(deg)": 0.006714176699485429,
        "Eccentricity": 0.0,
        "Inclination(deg)": 45.0,
        "Latitude(deg)": -42.49943108462314,
        "Longitude(deg)": 105.2560877001861,
        "Mean Anomaly(deg)": -107.74697229201131,
        "RAAN(deg)": 319.99366201345623,
        "Satellite Name": "Constellation 1 1423",
        "Satellite Number": 1423,
        "Semi-Major Axis(m)": 7083131.272910544,
        "Time(s)": 112
    },
    {
        "Altitude(m)": 716795.3498220766,
        "Argument of Periapsis(deg)": 0.006774124705730835,
        "Eccentricity": 0.0,
        "Inclination(deg)": 45.0,
        "Latitude(deg)": -42.51706195392101,
        "Longitude(deg)": 105.33038817823827,
        "Mean Anomaly(deg)": -107.68627115176145,
        "RAAN(deg)": 319.99360542429065,
        "Satellite Name": "Constellation 1 1423",
        "Satellite Number": 1423,
        "Semi-Major Axis(m)": 7083131.272910544,
        "Time(s)": 113
    }
]